[{"OBJECT_NAME":"BRO-10","OBJECT_ID":"2023-174CD","EPOCH":"2026-03-09T23:34:33.500352","MEAN_MOTION":15.73235012,"ECCENTRICITY":0.00030107,"INCLINATION":97.3656,"RA_OF_ASC_NODE":162.3972,"ARG_OF_PERICENTER":146.5418,"MEAN_ANOMALY":213.6037,"EPHEMERIS_TYPE":0,"CLASSIFICATION_TYPE":"U","NORAD_CAT_ID":58331,"ELEMENT_SET_NO":999,"REV_AT_EPOCH":13076,"BSTAR":0.0013973225,"MEAN_MOTION_DOT":0.00196052,"MEAN_MOTION_DDOT":0},{"OBJECT_NAME":"STARLINK-11379 [DTC]","OBJECT_ID":"2024-220B","EPOCH":"2026-03-09T21:43:11.189568","MEAN_MOTION":15.71149524,"ECCENTRICITY":0.00018644,"INCLINATION":43,"RA_OF_ASC_NODE":42.0789,"ARG_OF_PERICENTER":234.9073,"MEAN_ANOMALY":125.162,"EPHEMERIS_TYPE":0,"CLASSIFICATION_TYPE":"U","NORAD_CAT_ID":62089,"ELEMENT_SET_NO":999,"REV_AT_EPOCH":7498,"BSTAR":0.0030744075,"MEAN_MOTION_DOT":0.00420064,"MEAN_MOTION_DDOT":0}]
